{
  "type": "FeatureCollection",
  "features": [
    {
      "type": "Feature",
      "properties": {
        "norad_id": 28890,
        "name": "BEIJING 1",
        "group": "dmc",
        "lat": -31.327432462910405,
        "lon": -70.62326677674655,
        "alt_km": 684.8357493285812,
        "timestamp": "2025-12-12T22:42:12.216595+00:00",
        "meta_object_name": "BEIJING 1",
        "meta_object_id": "2005-043A",
        "meta_epoch": "2025-12-12T08:36:44.870688",
        "meta_mean_motion": 14.63366809,
        "meta_eccentricity": 0.00152904,
        "meta_inclination": 98.2653,
        "meta_ra_of_asc_node": 113.8644,
        "meta_arg_of_pericenter": 142.3711,
        "meta_mean_anomaly": 217.8563,
        "meta_ephemeris_type": 0,
        "meta_classification_type": "U",
        "meta_norad_cat_id": 28890,
        "meta_element_set_no": 999,
        "meta_rev_at_epoch": 7332,
        "meta_bstar": 0.00019438,
        "meta_mean_motion_dot": 9.57e-06,
        "meta_mean_motion_ddot": 0,
        "tle_line1": "1 28890U 05043A   25346.35885267  .00000957  00000+0  19438-3 0  9991",
        "tle_line2": "2 28890  98.2653 113.8644 0015290 142.3711 217.8563 14.63366809 73328"
      },
      "geometry": {
        "type": "Point",
        "coordinates": [
          -70.62326677674655,
          -31.327432462910405
        ]
      }
    },
    {
      "type": "Feature",
      "properties": {
        "norad_id": 33320,
        "name": "HUANJING 1A (HJ-1A)",
        "group": "dmc",
        "lat": -71.87938724442246,
        "lon": 130.97056697194043,
        "alt_km": 636.7858279890834,
        "timestamp": "2025-12-12T22:42:12.216618+00:00",
        "meta_object_name": "HUANJING 1A (HJ-1A)",
        "meta_object_id": "2008-041A",
        "meta_epoch": "2025-12-12T06:59:37.671072",
        "meta_mean_motion": 14.83393499,
        "meta_eccentricity": 0.00202011,
        "meta_inclination": 97.6545,
        "meta_ra_of_asc_node": 334.6087,
        "meta_arg_of_pericenter": 35.8709,
        "meta_mean_anomaly": 324.3858,
        "meta_ephemeris_type": 0,
        "meta_classification_type": "U",
        "meta_norad_cat_id": 33320,
        "meta_element_set_no": 999,
        "meta_rev_at_epoch": 93069,
        "meta_bstar": 0.00030447621,
        "meta_mean_motion_dot": 2.455e-05,
        "meta_mean_motion_ddot": 0,
        "tle_line1": "1 33320U 08041A   25346.29140823  .00002455  00000+0  30448-3 0  9990",
        "tle_line2": "2 33320  97.6545 334.6087 0020201  35.8709 324.3858 14.83393499930690"
      },
      "geometry": {
        "type": "Point",
        "coordinates": [
          130.97056697194043,
          -71.87938724442246
        ]
      }
    },
    {
      "type": "Feature",
      "properties": {
        "norad_id": 33321,
        "name": "HUANJING 1B (HJ-1B)",
        "group": "dmc",
        "lat": 64.27496465348447,
        "lon": 175.10945688383805,
        "alt_km": 593.5548947837133,
        "timestamp": "2025-12-12T22:42:12.216633+00:00",
        "meta_object_name": "HUANJING 1B (HJ-1B)",
        "meta_object_id": "2008-041B",
        "meta_epoch": "2025-12-12T05:59:46.665888",
        "meta_mean_motion": 14.82820323,
        "meta_eccentricity": 0.00381911,
        "meta_inclination": 97.6403,
        "meta_ra_of_asc_node": 338.267,
        "meta_arg_of_pericenter": 77.1817,
        "meta_mean_anomaly": 283.366,
        "meta_ephemeris_type": 0,
        "meta_classification_type": "U",
        "meta_norad_cat_id": 33321,
        "meta_element_set_no": 999,
        "meta_rev_at_epoch": 93070,
        "meta_bstar": 0.0003403018,
        "meta_mean_motion_dot": 2.737e-05,
        "meta_mean_motion_ddot": 0,
        "tle_line1": "1 33321U 08041B   25346.24984567  .00002737  00000+0  34030-3 0  9991",
        "tle_line2": "2 33321  97.6403 338.2670 0038191  77.1817 283.3660 14.82820323930705"
      },
      "geometry": {
        "type": "Point",
        "coordinates": [
          175.10945688383805,
          64.27496465348447
        ]
      }
    },
    {
      "type": "Feature",
      "properties": {
        "norad_id": 33446,
        "name": "YAOGAN-4",
        "group": "dmc",
        "lat": 25.60478257687385,
        "lon": -86.78102842861398,
        "alt_km": 615.7573138937405,
        "timestamp": "2025-12-12T22:42:12.216646+00:00",
        "meta_object_name": "YAOGAN-4",
        "meta_object_id": "2008-061A",
        "meta_epoch": "2025-12-12T06:23:25.930176",
        "meta_mean_motion": 14.82680249,
        "meta_eccentricity": 0.00135971,
        "meta_inclination": 97.918,
        "meta_ra_of_asc_node": 276.3703,
        "meta_arg_of_pericenter": 325.0698,
        "meta_mean_anomaly": 34.9622,
        "meta_ephemeris_type": 0,
        "meta_classification_type": "U",
        "meta_norad_cat_id": 33446,
        "meta_element_set_no": 999,
        "meta_rev_at_epoch": 91796,
        "meta_bstar": 0.00029483292,
        "meta_mean_motion_dot": 2.328e-05,
        "meta_mean_motion_ddot": 0,
        "tle_line1": "1 33446U 08061A   25346.26627234  .00002328  00000+0  29483-3 0  9990",
        "tle_line2": "2 33446  97.9180 276.3703 0013597 325.0698  34.9622 14.82680249917964"
      },
      "geometry": {
        "type": "Point",
        "coordinates": [
          -86.78102842861398,
          25.60478257687385
        ]
      }
    },
    {
      "type": "Feature",
      "properties": {
        "norad_id": 35681,
        "name": "DEIMOS-1",
        "group": "dmc",
        "lat": 29.64317273924817,
        "lon": -28.036106376497244,
        "alt_km": 643.2458741232131,
        "timestamp": "2025-12-12T22:42:12.216658+00:00",
        "meta_object_name": "DEIMOS-1",
        "meta_object_id": "2009-041A",
        "meta_epoch": "2025-12-12T07:22:21.170208",
        "meta_mean_motion": 14.74952732,
        "meta_eccentricity": 0.0002735,
        "meta_inclination": 97.7151,
        "meta_ra_of_asc_node": 146.9305,
        "meta_arg_of_pericenter": 80.3247,
        "meta_mean_anomaly": 279.8271,
        "meta_ephemeris_type": 0,
        "meta_classification_type": "U",
        "meta_norad_cat_id": 35681,
        "meta_element_set_no": 999,
        "meta_rev_at_epoch": 87933,
        "meta_bstar": 0.00021935524,
        "meta_mean_motion_dot": 1.427e-05,
        "meta_mean_motion_ddot": 0,
        "tle_line1": "1 35681U 09041A   25346.30718947  .00001427  00000+0  21936-3 0  9993",
        "tle_line2": "2 35681  97.7151 146.9305 0002735  80.3247 279.8271 14.74952732879334"
      },
      "geometry": {
        "type": "Point",
        "coordinates": [
          -28.036106376497244,
          29.64317273924817
        ]
      }
    },
    {
      "type": "Feature",
      "properties": {
        "norad_id": 35683,
        "name": "UK-DMC 2",
        "group": "dmc",
        "lat": 14.240057611127705,
        "lon": -56.14956517751176,
        "alt_km": 643.8328469587987,
        "timestamp": "2025-12-12T22:42:12.216669+00:00",
        "meta_object_name": "UK-DMC 2",
        "meta_object_id": "2009-041C",
        "meta_epoch": "2025-12-12T07:18:32.766624",
        "meta_mean_motion": 14.75620997,
        "meta_eccentricity": 0.00014557,
        "meta_inclination": 97.8562,
        "meta_ra_of_asc_node": 121.2192,
        "meta_arg_of_pericenter": 96.2758,
        "meta_mean_anomaly": 263.8618,
        "meta_ephemeris_type": 0,
        "meta_classification_type": "U",
        "meta_norad_cat_id": 35683,
        "meta_element_set_no": 999,
        "meta_rev_at_epoch": 87900,
        "meta_bstar": 0.00025796332,
        "meta_mean_motion_dot": 1.711e-05,
        "meta_mean_motion_ddot": 0,
        "tle_line1": "1 35683U 09041C   25346.30454591  .00001711  00000+0  25796-3 0  9991",
        "tle_line2": "2 35683  97.8562 121.2192 0001455  96.2758 263.8618 14.75620997879002"
      },
      "geometry": {
        "type": "Point",
        "coordinates": [
          -56.14956517751176,
          14.240057611127705
        ]
      }
    },
    {
      "type": "Feature",
      "properties": {
        "norad_id": 40715,
        "name": "DMC3-FM1",
        "group": "dmc",
        "lat": -41.31968727907666,
        "lon": 27.327535359236563,
        "alt_km": 619.3620867633372,
        "timestamp": "2025-12-12T22:42:12.216679+00:00",
        "meta_object_name": "DMC3-FM1",
        "meta_object_id": "2015-032A",
        "meta_epoch": "2025-12-12T07:09:28.512288",
        "meta_mean_motion": 14.85437618,
        "meta_eccentricity": 0.00047228,
        "meta_inclination": 97.669,
        "meta_ra_of_asc_node": 213.5068,
        "meta_arg_of_pericenter": 323.3742,
        "meta_mean_anomaly": 36.715,
        "meta_ephemeris_type": 0,
        "meta_classification_type": "U",
        "meta_norad_cat_id": 40715,
        "meta_element_set_no": 999,
        "meta_rev_at_epoch": 56216,
        "meta_bstar": 9.9606114e-05,
        "meta_mean_motion_dot": 8.07e-06,
        "meta_mean_motion_ddot": 0,
        "tle_line1": "1 40715U 15032A   25346.29824667  .00000807  00000+0  99606-4 0  9990",
        "tle_line2": "2 40715  97.6690 213.5068 0004722 323.3742  36.7150 14.85437618562169"
      },
      "geometry": {
        "type": "Point",
        "coordinates": [
          27.327535359236563,
          -41.31968727907666
        ]
      }
    },
    {
      "type": "Feature",
      "properties": {
        "norad_id": 40716,
        "name": "DMC3-FM2",
        "group": "dmc",
        "lat": 76.14055742946067,
        "lon": 68.70473540823316,
        "alt_km": 607.6968653064687,
        "timestamp": "2025-12-12T22:42:12.216690+00:00",
        "meta_object_name": "DMC3-FM2",
        "meta_object_id": "2015-032B",
        "meta_epoch": "2025-12-12T06:04:52.233312",
        "meta_mean_motion": 14.85439999,
        "meta_eccentricity": 0.00053373,
        "meta_inclination": 97.6746,
        "meta_ra_of_asc_node": 214.907,
        "meta_arg_of_pericenter": 327.656,
        "meta_mean_anomaly": 32.4328,
        "meta_ephemeris_type": 0,
        "meta_classification_type": "U",
        "meta_norad_cat_id": 40716,
        "meta_element_set_no": 999,
        "meta_rev_at_epoch": 56215,
        "meta_bstar": 0.00017391261,
        "meta_mean_motion_dot": 1.448e-05,
        "meta_mean_motion_ddot": 0,
        "tle_line1": "1 40716U 15032B   25346.25338233  .00001448  00000+0  17391-3 0  9998",
        "tle_line2": "2 40716  97.6746 214.9070 0005337 327.6560  32.4328 14.85439999562151"
      },
      "geometry": {
        "type": "Point",
        "coordinates": [
          68.70473540823316,
          76.14055742946067
        ]
      }
    },
    {
      "type": "Feature",
      "properties": {
        "norad_id": 40717,
        "name": "DMC3-FM3",
        "group": "dmc",
        "lat": -14.023230694946946,
        "lon": -140.8607697428088,
        "alt_km": 613.7848757922075,
        "timestamp": "2025-12-12T22:42:12.216700+00:00",
        "meta_object_name": "DMC3-FM3",
        "meta_object_id": "2015-032C",
        "meta_epoch": "2025-12-12T06:36:00.165024",
        "meta_mean_motion": 14.85431086,
        "meta_eccentricity": 0.00046578,
        "meta_inclination": 97.6801,
        "meta_ra_of_asc_node": 216.5606,
        "meta_arg_of_pericenter": 330.6335,
        "meta_mean_anomaly": 29.4618,
        "meta_ephemeris_type": 0,
        "meta_classification_type": "U",
        "meta_norad_cat_id": 40717,
        "meta_element_set_no": 999,
        "meta_rev_at_epoch": 56216,
        "meta_bstar": 0.00019633416,
        "meta_mean_motion_dot": 1.641e-05,
        "meta_mean_motion_ddot": 0,
        "tle_line1": "1 40717U 15032C   25346.27500191  .00001641  00000+0  19633-3 0  9991",
        "tle_line2": "2 40717  97.6801 216.5606 0004657 330.6335  29.4618 14.85431086562163"
      },
      "geometry": {
        "type": "Point",
        "coordinates": [
          -140.8607697428088,
          -14.023230694946946
        ]
      }
    }
  ]
}